STARLINK-30827          
1 58195U 23167W   26067.60443985 -.00002571  00000+0 -83948-4 0  9999
2 58195  43.0010 149.1353 0001333 267.1665  92.9034 15.27576838130820
FLOCK 4G-30             
1 62679U 25009BY  26068.70871344  .00013147  00000+0  49475-3 0  9999
2 62679  97.3969 150.6012 0003795 342.4152  17.6955 15.27244548121341
